NORAD_CAT_ID,OBJECT_NAME,OBJECT_TYPE,EPOCH,MEAN_MOTION,ECCENTRICITY,INCLINATION,RA_OF_ASC_NODE,ARG_OF_PERICENTER,MEAN_ANOMALY,BSTAR,MEAN_MOTION_DOT,MEAN_MOTION_DDOT,TLE_LINE0,TLE_LINE1,TLE_LINE2,SEMIMAJOR_AXIS,PERIOD,APOGEE,PERIGEE,DECAYED
49131.0,STARLINK-3096,PAYLOAD,2024-05-31 22:07:44,14.98330677,0.0002825,70.0003,85.1807,273.1801,86.9035,2.389e-05,1.92e-06,0.0,0 STARLINK-3096,1 49131U 21082B   24152.92204310  .00000192  00000-0  23890-4 0  9994,2 49131  70.0003  85.1807 0002825 273.1801  86.9035 14.98330677150081,6950.191,96.107,574.019,570.092,0.0
49131.0,STARLINK-3096,PAYLOAD,2024-06-01 12:32:56,14.98339385,0.0002731,70.0006,83.6662,269.1303,90.9544,-0.00010049,-1.292e-05,0.0,0 STARLINK-3096,1 49131U 21082B   24153.52287881 -.00001292  00000-0 -10049-3 0  9990,2 49131  70.0006  83.6662 0002731 269.1303  90.9544 14.98339385150179,6950.164,96.106,573.927,570.131,0.0
49131.0,STARLINK-3096,PAYLOAD,2024-06-01 20:33:37,14.98330419,0.000261,70.0006,82.8247,267.5847,92.5013,-1.4826e-06,-1.11e-06,0.0,0 STARLINK-3096,1 49131U 21082B   24153.85668280 -.00000111  00000-0 -14826-5 0  9990,2 49131  70.0006  82.8247 0002610 267.5847  92.5013 14.98330419150224,6950.192,96.107,573.871,570.243,0.0
49131.0,STARLINK-3096,PAYLOAD,2024-06-02 12:34:58,14.98323494,0.0002597,70.0008,81.1411,266.6859,93.4003,-8.3568e-05,-1.09e-05,0.0,0 STARLINK-3096,1 49131U 21082B   24154.52428963 -.00001090  00000-0 -83568-4 0  9992,2 49131  70.0008  81.1411 0002597 266.6859  93.4003 14.98323494150323,6950.213,96.107,573.883,570.273,0.0
49131.0,STARLINK-3096,PAYLOAD,2024-06-02 18:59:30,14.98321322,0.0002732,70.0008,80.4673,271.6015,88.4832,-1.9709e-05,-3.28e-06,0.0,0 STARLINK-3096,1 49131U 21082B   24154.79133037 -.00000328  00000-0 -19709-4 0  9995,2 49131  70.0008  80.4673 0002732 271.6015  88.4832 14.98321322150362,6950.22,96.108,573.984,570.186,0.0
49131.0,STARLINK-3096,PAYLOAD,2024-06-03 12:36:59,14.98331495,0.0002718,70.0011,78.6163,269.4675,90.6173,6.9907e-05,7.41e-06,0.0,0 STARLINK-3096,1 49131U 21082B   24155.52568523  .00000741  00000-0  69907-4 0  9991,2 49131  70.0011  78.6163 0002718 269.4675  90.6173 14.98331495150477,6950.188,96.107,573.942,570.164,0.0
49131.0,STARLINK-3096,PAYLOAD,2024-06-03 19:01:30,14.98335583,0.0002914,70.0001,77.9427,269.006,91.0765,0.00019072,2.184e-05,0.0,0 STARLINK-3096,1 49131U 21082B   24155.79271868  .00002184  00000-0  19072-3 0  9993,2 49131  70.0001  77.9427 0002914 269.0060  91.0765 14.98335583150512,6950.176,96.107,574.066,570.015,0.0
49131.0,STARLINK-3096,PAYLOAD,2024-06-04 04:38:18,14.98346001,0.0002904,70.0002,76.9325,268.5857,91.497,0.00023283,2.687e-05,0.0,0 STARLINK-3096,1 49131U 21082B   24156.19326981  .00002687  00000-0  23283-3 0  9992,2 49131  70.0002  76.9325 0002904 268.5857  91.4970 14.98346001150571,6950.143,96.106,574.027,569.99,0.0
49131.0,STARLINK-3096,PAYLOAD,2024-06-04 12:38:59,14.98336887,0.0002882,70.0001,76.0904,265.7222,94.3608,0.00021275,2.447e-05,0.0,0 STARLINK-3096,1 49131U 21082B   24156.52707486  .00002447  00000-0  21275-3 0  9995,2 49131  70.0001  76.0904 0002882 265.7222  94.3608 14.98336887150621,6950.172,96.107,574.04,570.034,0.0
49131.0,STARLINK-3096,PAYLOAD,2024-06-05 04:40:20,14.9833139,0.0002786,70.0009,74.4084,269.5153,90.5686,0.00013884,1.564e-05,0.0,0 STARLINK-3096,1 49131U 21082B   24157.19467981  .00001564  00000-0  13884-3 0  9998,2 49131  70.0009  74.4084 0002786 269.5153  90.5686 14.98331390150727,6950.189,96.107,573.99,570.117,0.0
49131.0,STARLINK-3096,PAYLOAD,2024-06-06 04:42:21,14.98334006,0.0002618,70.0017,71.8837,271.1343,88.9516,-0.00012575,-1.593e-05,0.0,0 STARLINK-3096,1 49131U 21082B   24158.19608314 -.00001593  00000-0 -12575-3 0  9996,2 49131  70.0017  71.8837 0002618 271.1343  88.9516 14.98334006150873,6950.181,96.107,573.865,570.226,0.0
49131.0,STARLINK-3096,PAYLOAD,2024-06-06 11:06:52,14.98394868,0.0002859,70.0019,71.2103,265.7532,94.3301,-0.0011796,-0.00014163,0.0,0 STARLINK-3096,1 49131U 21082B   24158.46310370 -.00014163  00000-0 -11796-2 0  9998,2 49131  70.0019  71.2103 0002859 265.7532  94.3301 14.98394868150911,6949.992,96.103,573.844,569.87,0.0
49131.0,STARLINK-3096,PAYLOAD,2024-06-07 17:33:26,14.98332964,0.0002234,70.0024,68.0091,283.8403,76.2507,9.2579e-05,1.012e-05,0.0,0 STARLINK-3096,1 49131U 21082B   24159.73156021  .00001012  00000-0  92579-4 0  9997,2 49131  70.0024  68.0091 0002234 283.8403  76.2507 14.98332964151100,6950.184,96.107,573.601,570.496,0.0
49131.0,STARLINK-3096,PAYLOAD,2024-06-07 22:21:51,14.98332107,0.0002324,70.0023,67.504,283.2292,76.8608,7.2595e-05,7.73e-06,0.0,0 STARLINK-3096,1 49131U 21082B   24159.93184081  .00000773  00000-0  72595-4 0  9995,2 49131  70.0023  67.5040 0002324 283.2292  76.8608 14.98332107151137,6950.186,96.107,573.667,570.436,0.0
49131.0,STARLINK-3096,PAYLOAD,2024-06-08 11:10:55,14.98327002,0.0002781,70.001,66.1589,271.199,88.885,-1.127e-06,-1.06e-06,0.0,0 STARLINK-3096,1 49131U 21082B   24160.46592370 -.00000106  00000-0 -11270-5 0  9995,2 49131  70.0010  66.1589 0002781 271.1990  88.8850 14.98327002151213,6950.202,96.107,574.0,570.134,0.0
49131.0,STARLINK-3096,PAYLOAD,2024-06-08 17:35:27,14.98330278,0.0002508,70.0006,65.4853,273.4481,86.6392,1.095e-05,3.8e-07,0.0,0 STARLINK-3096,1 49131U 21082B   24160.73296277  .00000038  00000-0  10950-4 0  9997,2 49131  70.0006  65.4853 0002508 273.4481  86.6392 14.98330278151251,6950.192,96.107,573.8,570.314,0.0
49131.0,STARLINK-3096,PAYLOAD,2024-06-08 22:23:52,14.98329801,0.0002636,70.0014,64.9805,272.179,87.9067,-5.8083e-06,-1.62e-06,0.0,0 STARLINK-3096,1 49131U 21082B   24160.93324290 -.00000162  00000-0 -58083-5 0  9996,2 49131  70.0014  64.9805 0002636 272.1790  87.9067 14.98329801151288,6950.194,96.107,573.891,570.226,0.0
49131.0,STARLINK-3096,PAYLOAD,2024-06-09 03:12:16,14.98326482,0.000304,70.0006,64.4754,269.1418,90.9392,0.00012695,1.422e-05,0.0,0 STARLINK-3096,1 49131U 21082B   24161.13351885  .00001422  00000-0  12695-3 0  9994,2 49131  70.0006  64.4754 0003040 269.1418  90.9392 14.98326482151311,6950.204,96.107,574.182,569.956,0.0
49131.0,STARLINK-3096,PAYLOAD,2024-06-09 20:49:45,14.98327466,0.0002904,70.0006,62.6251,269.058,91.0246,5.258e-05,5.34e-06,0.0,0 STARLINK-3096,1 49131U 21082B   24161.86788318  .00000534  00000-0  52580-4 0  9990,2 49131  70.0006  62.6251 0002904 269.0580  91.0246 14.98327466151425,6950.201,96.107,574.084,570.047,0.0
49131.0,STARLINK-3096,PAYLOAD,2024-06-09 22:25:53,14.98328299,0.0002798,70.0008,62.4565,267.7918,92.2921,5.3315e-05,5.43e-06,0.0,0 STARLINK-3096,1 49131U 21082B   24161.93464274  .00000543  00000-0  53315-4 0  9997,2 49131  70.0008  62.4565 0002798 267.7918  92.2921 14.98328299151433,6950.198,96.107,574.008,570.118,0.0
49131.0,STARLINK-3096,PAYLOAD,2024-06-10 11:14:57,14.983342,0.0002924,70.0006,61.1099,268.7409,91.3415,9.7927e-06,2.4e-07,0.0,0 STARLINK-3096,1 49131U 21082B   24162.46871945  .00000024  00000-0  97927-5 0  9995,2 49131  70.0006  61.1099 0002924 268.7409  91.3415 14.98334200151512,6950.18,96.107,574.077,570.013,0.0
49131.0,STARLINK-3096,PAYLOAD,2024-06-10 20:51:45,14.98330641,0.000296,70.0005,60.0998,268.4049,91.6771,0.0001119,1.242e-05,0.0,0 STARLINK-3096,1 49131U 21082B   24162.86927984  .00001242  00000-0  11190-3 0  9993,2 49131  70.0005  60.0998 0002960 268.4049  91.6771 14.98330641151573,6950.191,96.107,574.113,569.999,0.0
49131.0,STARLINK-3096,PAYLOAD,2024-06-10 22:27:53,14.98331382,0.0002954,70.0005,59.9315,268.4062,91.6759,0.00011876,1.324e-05,0.0,0 STARLINK-3096,1 49131U 21082B   24162.93603921  .00001324  00000-0  11876-3 0  9995,2 49131  70.0005  59.9315 0002954 268.4062  91.6759 14.98331382151581,6950.189,96.107,574.107,570.001,0.0
49131.0,STARLINK-3096,PAYLOAD,2024-06-11 03:16:17,14.98330399,0.0002997,70.0006,59.427,269.4511,90.6305,0.00023109,2.665e-05,0.0,0 STARLINK-3096,1 49131U 21082B   24163.13631761  .00002665  00000-0  23109-3 0  9992,2 49131  70.0006  59.4270 0002997 269.4511  90.6305 14.98330399151611,6950.192,96.107,574.14,569.974,0.0
49131.0,STARLINK-3096,PAYLOAD,2024-06-12 03:18:18,14.98337208,0.0002991,70.0006,56.9022,271.4311,88.6506,0.00016725,1.904e-05,0.0,0 STARLINK-3096,1 49131U 21082B   24164.13771184  .00001904  00000-0  16725-3 0  9998,2 49131  70.0006  56.9022 0002991 271.4311  88.6506 14.98337208151765,6950.171,96.107,574.114,569.957,0.0
49131.0,STARLINK-3096,PAYLOAD,2024-06-12 20:55:48,14.98299154,0.0002918,70.0013,55.0524,266.9659,93.1166,0.00052245,6.141e-05,0.0,0 STARLINK-3096,1 49131U 21082B   24164.87208810  .00006141  00000-0  52245-3 0  9995,2 49131  70.0013  55.0524 0002918 266.9659  93.1166 14.98299154151875,6950.288,96.109,574.181,570.125,0.0
49131.0,STARLINK-3096,PAYLOAD,2024-06-12 22:31:55,14.98327499,0.0002763,70.0014,54.8833,270.8327,89.2516,5.741e-06,-2.4e-07,0.0,0 STARLINK-3096,1 49131U 21082B   24164.93884084 -.00000024  00000-0  57410-5 0  9991,2 49131  70.0014  54.8833 0002763 270.8327  89.2516 14.98327499151880,6950.201,96.107,573.986,570.145,0.0
49131.0,STARLINK-3096,PAYLOAD,2024-06-13 01:44:11,14.98334666,0.0002478,70.0012,54.5474,263.0643,97.0235,-0.00014813,-1.86e-05,0.0,0 STARLINK-3096,1 49131U 21082B   24165.07235966 -.00001860  00000-0 -14813-3 0  9994,2 49131  70.0012  54.5474 0002478 263.0643  97.0235 14.98334666151906,6950.178,96.107,573.766,570.321,0.0
49131.0,STARLINK-3096,PAYLOAD,2024-06-13 09:44:52,14.98329835,0.000272,70.0015,53.7066,264.7935,95.2914,-1.4291e-05,-2.63e-06,0.0,0 STARLINK-3096,1 49131U 21082B   24165.40615964 -.00000263  00000-0 -14291-4 0  9998,2 49131  70.0015  53.7066 0002720 264.7935  95.2914 14.98329835151950,6950.193,96.107,573.949,570.168,0.0
49131.0,STARLINK-3096,PAYLOAD,2024-06-13 22:33:56,14.98333234,0.0002723,70.001,52.3596,262.2011,97.8839,2.5919e-05,2.16e-06,0.0,0 STARLINK-3096,1 49131U 21082B   24165.94023524  .00000216  00000-0  25919-4 0  9997,2 49131  70.0010  52.3596 0002723 262.2011  97.8839 14.98333234152031,6950.183,96.107,573.94,570.155,0.0
